CAS-2T & KS-1Q
1 41847U 16066G   25074.72143556  .00003395  00000-0  48862-3 0  9995
2 41847  98.4265 149.9239 0348497  78.2631 285.7434 14.43141380438635
GOES-16
1 41866U 16071A   25074.81238123 -.00000248  00000-0  00000-0 0  9991
2 41866   0.0891 287.0217 0001946  84.9178  18.8202  1.00267772 30500
FENGYUN-4A
1 41882U 16077A   25067.80059639 -.00000113  00000-0  00000-0 0  9990
2 41882   1.1339  85.1667 0004787 173.2627 349.1682  1.00660049 30269
FOX-1B (AO-91)
1 43017U 17073E   25074.69239470  .00016211  00000-0  85349-3 0  9994
2 43017  97.5411 307.6843 0181658  98.7127 263.4721 15.02488826396308
CANX-2
1 32790U 08021H   25074.85287987  .00011248  00000-0  89700-3 0  9997
2 32790  97.8048  44.0536 0014227 122.2394 238.0211 15.00407128916034
AIST-2 (RS-43)
1 39133U 13015D   25075.08448026  .00011430  00000-0  54252-3 0  9990
2 39133  64.8716 307.4597 0028233 288.3016  71.5040 15.19264226654587
NANOSATC-BR1
1 40024U 14033Q   25074.92100737  .00028426  00000-0  15234-2 0  9997
2 40024  98.0899  67.0958 0004363   2.7029 357.4224 15.14949088584223
QB50P1
1 40025U 14033R   25074.90376742  .00019516  00000-0  12606-2 0  9997
2 40025  98.0772  52.8883 0010735 358.9901   1.1303 15.08238396583718
QB50P2
1 40032U 14033Y   25074.88762712  .00016822  00000-0  11462-2 0  9994
2 40032  98.0368  42.4901 0006447 300.3862  59.6726 15.06325923583465
PERSEUS-M2
1 40037U 14033AD  25075.14821716  .00004795  00000-0  46462-3 0  9994
2 40037  97.9491  13.7270 0013125  23.8476 336.3348 14.93134562582875
PERSEUS-M1
1 40039U 14033AF  25075.06561108  .00005405  00000-0  52368-3 0  9994
2 40039  97.9243   8.8791 0012930  23.2954 336.8848 14.93077749582720
POLYITAN-1
1 40042U 14033AJ  25074.88821657  .00030782  00000-0  16499-2 0  9995
2 40042  98.1009  59.2981 0007835 303.6288  56.4194 15.14907810583793
TIGRISAT
1 40043U 14033AK  25074.89437155  .00007242  00000-0  89156-3 0  9999
2 40043  97.7226 233.0185 0053082 136.0626 224.4827 14.82235770577669
UKUBE-1
1 40074U 14037F   25075.10292187  .00019756  00000-0  14704-2 0  9995
2 40074  98.3843  30.1273 0000645  76.7351 283.3944 15.02991863579493
DEORBITSAIL
1 40719U 15032E   25074.85011417  .00016209  00000-0  14911-2 0  9993
2 40719  97.6541 296.4439 0010999 320.9169  39.1256 14.94792969522566
HORYU-IV
1 41340U 16012D   25074.94748315  .00041357  00000-0  13116-2 0  9995
2 41340  30.9988 345.7941 0008236 261.4629  98.5081 15.31450086499627
D-SAT
1 42794U 17036AF  25074.92125565  .00017234  00000-0  10031-2 0  9990
2 42794  97.5085  54.5428 0094602 302.6602  56.5526 15.08322433421579
CORVUS-BC2
1 42846U 17042X   25075.00033254  .00008305  00000-0  63860-3 0  9996
2 42846  97.3693 251.7834 0012567 224.4542 135.5675 15.01886258418185
CORVUS-BC1
1 42847U 17042Y   25074.93201786  .00008316  00000-0  63573-3 0  9998
2 42847  97.3713 252.1820 0012104 202.2816 157.7885 15.02113035418191
APRIZESAT-5 
1 37792U 11044E   25075.15071822  .00003172  00000-0  42049-3 0  9998
2 37792  98.2334 351.3353 0054728  37.8908 322.6134 14.79576516731163
APRIZESAT-6
1 37793U 11044F   25074.66386244  .00002279  00000-0  33518-3 0  9999
2 37793  98.2705 330.4290 0045309 110.8807 308.1503 14.75789574729497
APRIZESAT-7
1 39416U 13066A   25074.82835003  .00004887  00000-0  51107-3 0  9990
2 39416  97.7118  32.0582 0035468 291.3468  68.3966 14.89644720612942
APRIZESAT-8
1 39425U 13066K   25074.93665432  .00004463  00000-0  50601-3 0  9997
2 39425  97.7674  25.9752 0047300 355.4626   4.6154 14.86052079611842
BUGSAT-1 (TITA)
1 40014U 14033E   25074.94557920  .00010442  00000-0  64851-3 0  9997
2 40014  98.0843 136.8527 0030534 299.5245  60.2938 15.09499876586562
SAUDISAT-4
1 40016U 14033G   25074.91133178  .00002610  00000-0  35810-3 0  9992
2 40016  97.6942 234.0116 0046862 124.1934 236.3733 14.78469124578336
TABLETSAT-AURORA
1 40017U 14033H   25075.14667557  .00011807  00000-0  73417-3 0  9995
2 40017  98.0845 118.1580 0012675 340.1568  19.9165 15.09743291585921
APRIZESAT-9
1 40018U 14033J   25074.98726516  .00002508  00000-0  38334-3 0  9995
2 40018  97.8383 216.5121 0066433 232.8382 126.6748 14.73182082576201
APRIZESAT-10
1 40019U 14033K   25075.11080202  .00001674  00000-0  27462-3 0  9990
2 40019  97.9014 209.2449 0078870 297.1019  62.2158 14.69973305575115
AISAT
1 40054U 14034B   25074.92662720  .00018858  00000-0  16134-2 0  9994
2 40054  98.3006 311.8355 0007458 319.2981  40.7681 14.97635321578360
COSMOS-2407 [+]
1 28380U 04028A   25074.90916157  .00000098  00000-0  83722-4 0  9994
2 28380  82.9587  54.2004 0040680  93.9422 295.2557 13.76277011 36845
COSMOS-2414 [+]
1 28521U 05002A   25074.95523347  .00000136  00000-0  10083-3 0  9996
2 28521  82.9517  30.2070 0039666 194.1080 165.8979 13.87858632 20252
COSMOS-2463 [+]
1 36519U 10017A   25075.18350501  .00000090  00000-0  82961-4 0  9994
2 36519  82.9595 226.2051 0035261 322.5659 210.6770 13.71616628745236
NOAA-15
1 25338U 98030A   25075.12542881  .00000439  00000-0  19823-3 0  9993
2 25338  98.5450 102.2780 0009219 246.3772 113.6442 14.26909598396211
NOAA-18
1 28654U 05018A   25075.18855678  .00000469  00000-0  27229-3 0  9990
2 28654  98.8462 155.6171 0014190  16.3868 343.7760 14.13542600 21680
NOAA-19
1 33591U 09005A   25075.11022781  .00000417  00000-0  24654-3 0  9992
2 33591  99.0070 139.3045 0012956 242.7158 117.2694 14.13309771830035
SARAL
1 39086U 13009A   25075.19772012  .00000368  00000-0  15132-3 0  9999
2 39086  98.5534 262.6542 0001845 167.5135 192.6095 14.32679058630023
LAPAN-A3
1 41603U 16040E   25075.18670556  .00006782  00000-0  24373-3 0  9997
2 41603  97.1397  83.1837 0010277 204.4467 155.6288 15.28902415484734
BIROS
1 41604U 16040F   25074.92157201  .00049073  00000-0  72135-3 0  9995
2 41604  97.0961 104.0265 0008135 125.3296 234.8720 15.55293406486152
METOP-A
1 29499U 06044A   25074.88581684  .00005602  00000-0  66886-3 0  9993
2 29499  98.3306 163.2778 0181862  88.3003 337.6250 14.73482161957909
METEOR M1
1 35865U 09049A   25074.86469042  .00000358  00000-0  17842-3 0  9997
2 35865  98.6757  37.4152 0002144 166.0846 194.0392 14.22972383804062
METOP-B
1 38771U 12049A   25075.15621245  .00000346  00000-0  17778-3 0  9993
2 38771  98.5887 131.7330 0000673 140.6328 219.4899 14.21452381648181
METEOR M2
1 40069U 14037A   25075.22610457  .00000415  00000-0  20979-3 0  9990
2 40069  98.4629  63.6706 0004626 293.2906  66.7785 14.21241665554269
CSSWE
1 38761U 12048D   25074.67353293  .00031461  00000-0  11907-2 0  9991
2 38761  64.6662 176.9895 0118752 297.7666  61.1459 15.20387299 46179
MCUBED-2
1 39469U 13072H   25074.94350478  .00018914  00000-0  99446-3 0  9990
2 39469 120.4954  41.9293 0171078 239.9607 118.4388 15.04058814 48579
IPEX
1 39471U 13072K   25074.67957399  .00015777  00000-0  94685-3 0  9992
2 39471 120.4690   9.8651 0185089 232.1527 126.2657 14.98006656 46307
FOX-1A (AO-85)
1 40967U 15058D   25074.88796310  .00010078  00000-0  86608-3 0  9992
2 40967  64.7745 259.4045 0173643 222.3136 136.4473 14.86896073 45327
OOREOS
1 37224U 10062C   25074.96392475  .00007374  00000-0  75471-3 0  9998
2 37224  71.9733  36.0143 0016720 225.5893 134.3908 14.90682719 48284
STARS (KUKAI)
1 33498U 09002G   25074.77448991  .00009718  00000-0  99678-3 0  9992
2 33498  98.1225   1.3927 0007525 235.5210 124.5296 14.90626852870068
YUBELEINY-2 (RS-40)
1 38735U 12041C   25074.91387199  .00000032  00000-0  16170-3 0  9992
2 38735  82.4824   0.4421 0017586 350.8205   9.2550 12.42627607572920
AIST-1
1 39492U 13078C   25075.05011774  .00005529  00000-0  51516-3 0  9992
2 39492  82.4208 354.0076 0018168  16.8774 343.3047 14.93977356609121
VELOX-1
1 40057U 14034E   25075.17155068  .00009737  00000-0  97088-3 0  9991
2 40057  98.3058 310.1134 0008127 345.9889  14.1102 14.91766231578175
DX1
1 40071U 14037C   25075.15409390  .00005337  00000-0  59412-3 0  9999
2 40071  98.3402   6.5553 0006757 333.7216  26.3655 14.87557846578039
AAUSAT CUBESAT 2
1 32788U 08021F   25074.95012516  .00184900  00000-0  26228-2 0  9990
2 32788  97.6063  68.3287 0003913 106.3701 253.7984 15.55792272919933
COSMOS-2491 (RS-46) [i]
1 39497U 13076E   25075.13133186  .00000024  00000-0  99141-4 0  9998
2 39497  82.4799  93.9618 0013213  15.7771 344.3718 12.43487047509089
COSMOS-2499 (RS-47) [i]
1 39765U 14028E   25075.01988768  .00000030  00000-0  72489-4 0  9998
2 39765  82.4521 201.5798 0231297 357.5689   2.4270 12.82887529506494
TRANSIT 5B-5
1 00965U 64083D   25074.90313969  .00000117  00000-0  15054-3 0  9996
2 00965  90.0599 199.7751 0041710 175.4932 299.7916 13.56951608981451
EUTELSAT 1-F4 (ECS 4)
1 18351U 87078B   25074.83615006 -.00000010  00000-0  00000+0 0  9996
2 18351  14.1559 345.3417 0010823  27.1492 146.5525  0.98687890122212
BISONSAT
1 40968U 15058E   25074.84609580  .00015233  00000-0  12185-2 0  9997
2 40968  64.7748 248.8564 0164484 221.3754 137.4806 14.90311387 48214
DTUSAT-2
1 40030U 14033W   25074.86297590  .00018163  00000-0  12398-2 0  9996
2 40030  98.0469  42.6911 0009679   3.3294 356.7994 15.06219400583489
ELEKTRO-L2
1 41105U 15074A   25074.82442122 -.00000114  00000-0  00000-0 0  9998
2 41105   5.5341  76.1547 0002906 230.1055 149.6577  1.00272538 33917
DOVE-3
1 39429U 13066P   25074.90076022  .00007995  00000-0  11247-2 0  9994
2 39429  97.7244 312.6656 0122781  67.4236 293.9910 14.72470296603475
FORTE
1 24920U 97047A   25074.92678243  .00000616  00000-0  27280-3 0  9998
2 24920  69.9548 328.8568 0022767 190.3244 169.7414 14.27617540433275
DMSP 5D-2 F15/USA-147
1 25991U 99067A   25074.96287854  .00000418  00000-0  22976-3 0  9996
2 25991  99.0487 101.4788 0009253 220.5284 200.0920 14.17317959305734
CASSIOPE-1
1 39265U 13055A   25074.91649996  .00051923 -43894-6  86500-3 0  9997
2 39265  80.9408 248.4153 0414895 129.6741 234.1854 14.91907692598595
D-STAR ONE PHOENIX
1 43188U 18014J   25074.68854659  .00011949  00000-0  73018-3 0  9993
2 43188  97.5714 338.6204 0010780 147.2896 212.9003 15.10374851389404
